[{"OBJECT_NAME":"STARLINK-4057","OBJECT_ID":"2022-086AD","EPOCH":"2026-03-10T00:00:02.999808","MEAN_MOTION":15.88184948,"ECCENTRICITY":0.00010284,"INCLINATION":53.2157,"RA_OF_ASC_NODE":172.1827,"ARG_OF_PERICENTER":35.9986,"MEAN_ANOMALY":58.7353,"EPHEMERIS_TYPE":0,"CLASSIFICATION_TYPE":"U","NORAD_CAT_ID":53269,"ELEMENT_SET_NO":999,"REV_AT_EPOCH":585,"BSTAR":0.004058935,"MEAN_MOTION_DOT":0.01287363,"MEAN_MOTION_DDOT":0},{"OBJECT_NAME":"STARLINK-30559","OBJECT_ID":"2023-156M","EPOCH":"2026-03-09T23:55:59.009664","MEAN_MOTION":15.97658945,"ECCENTRICITY":0.00155021,"INCLINATION":53.1349,"RA_OF_ASC_NODE":157.5619,"ARG_OF_PERICENTER":340.1884,"MEAN_ANOMALY":19.8541,"EPHEMERIS_TYPE":0,"CLASSIFICATION_TYPE":"U","NORAD_CAT_ID":58039,"ELEMENT_SET_NO":999,"REV_AT_EPOCH":13520,"BSTAR":0.0010470416,"MEAN_MOTION_DOT":0.00485005,"MEAN_MOTION_DDOT":0.00010963156}]
